0 COSMOS 1375 DEB
1 16386U 82055AA  13282.82536698 -.00000109  00000-0 -34401-4 0  6262
2 16386 065.8371 201.3526 0033627 088.1948 338.2599 13.69511485567925
0 COSMOS 1375 DEB
1 16386U 82055AA  13287.86449024 -.00000001  00000-0  88944-4 0  6280
2 16386 065.8366 189.0215 0033681 085.0414 343.0476 13.69511560568619
0 COSMOS 1375 DEB
1 16386U 82055AA  13290.14514488 -.00000025  00000-0  61707-4 0  6297
2 16386 065.8361 183.4407 0033702 083.6191 067.5326 13.69511721568920
0 COSMOS 1375 DEB
1 16386U 82055AA  13292.32508170 -.00000041  00000-0  44083-4 0  6308
2 16386 065.8357 178.1061 0033753 082.2487 015.4543 13.69512377569226
0 COSMOS 1375 DEB
1 16386U 82055AA  13294.80197840 -.00000030  00000-0  55941-4 0  6315
2 16386 065.8356 172.0446 0033793 080.6723 347.5279 13.69512950569563
